{"type": "FeatureCollection", "features": [ {"type": "Feature", "properties": {"norad_id": 33917, "name": "COSMOS 2251 DEB", "group": "cosmos-2251-debris", "lat": -42.7673235805466, "lon": 84.04892646020086, "alt_km": 1116.143928865209, "timestamp": "2025-12-26T19:22:39.302400+00:00", "meta": {"OBJECT_NAME": "COSMOS 2251 DEB", "OBJECT_ID": "1993-036DW", "EPOCH": "2025-12-26T07:20:03.177312", "MEAN_MOTION": 13.69391507, "ECCENTRICITY": 0.03311133, "INCLINATION": 74.1073, "RA_OF_ASC_NODE": 100.15, "ARG_OF_PERICENTER": 198.1562, "MEAN_ANOMALY": 160.7506, "EPHEMERIS_TYPE": 0, "CLASSIFICATION_TYPE": "U", "NORAD_CAT_ID": 33917, "ELEMENT_SET_NO": 999, "REV_AT_EPOCH": 83919, "BSTAR": 0.0010824387, "MEAN_MOTION_DOT": 1.361e-05, "MEAN_MOTION_DDOT": 0}, "tle": {"line1": "1 33917U 93036DW  25360.30559233  .00001361  00000+0  10824-2 0  9997", "line2": "2 33917  74.1073 100.1500 0331113 198.1562 160.7506 13.69391507839197"}}, "geometry": {"type": "Point", "coordinates": [84.04892646020086, -42.7673235805466]}}, {"type": "Feature", "properties": {"norad_id": 33920, "name": "COSMOS 2251 DEB", "group": "cosmos-2251-debris", "lat": -35.47944485053912, "lon": 103.44579143767331, "alt_km": 690.2252034565445, "timestamp": "2025-12-26T19:22:39.302410+00:00", "meta": {"OBJECT_NAME": "COSMOS 2251 DEB", "OBJECT_ID": "1993-036DZ", "EPOCH": "2025-12-26T11:47:49.712640", "MEAN_MOTION": 14.58483184, "ECCENTRICITY": 0.00375718, "INCLINATION": 74.0608, "RA_OF_ASC_NODE": 272.2928, "ARG_OF_PERICENTER": 276.7047, "MEAN_ANOMALY": 82.9843, "EPHEMERIS_TYPE": 0, "CLASSIFICATION_TYPE": "U", "NORAD_CAT_ID": 33920, "ELEMENT_SET_NO": 999, "REV_AT_EPOCH": 88315, "BSTAR": 0.001550977, "MEAN_MOTION_DOT": 7.249e-05, "MEAN_MOTION_DDOT": 0}, "tle": {"line1": "1 33920U 93036DZ  25360.49154760  .00007249  00000+0  15510-2 0  9995", "line2": "2 33920  74.0608 272.2928 0037571 276.7047  82.9843 14.58483184883157"}}, "geometry": {"type": "Point", "coordinates": [103.44579143767331, -35.47944485053912]}}, {"type": "Feature", "properties": {"norad_id": 33922, "name": "COSMOS 2251 DEB", "group": "cosmos-2251-debris", "lat": -73.94405878793704, "lon": 37.72789173797836, "alt_km": 721.7191709095787, "timestamp": "2025-12-26T19:22:39.302420+00:00", "meta": {"OBJECT_NAME": "COSMOS 2251 DEB", "OBJECT_ID": "1993-036EB", "EPOCH": "2025-12-26T10:09:19.551744", "MEAN_MOTION": 14.49558695, "ECCENTRICITY": 0.00230791, "INCLINATION": 74.0472, "RA_OF_ASC_NODE": 122.1065, "ARG_OF_PERICENTER": 231.222, "MEAN_ANOMALY": 195.9664, "EPHEMERIS_TYPE": 0, "CLASSIFICATION_TYPE": "U", "NORAD_CAT_ID": 33922, "ELEMENT_SET_NO": 999, "REV_AT_EPOCH": 88776, "BSTAR": 0.00055695808, "MEAN_MOTION_DOT": 2.117e-05, "MEAN_MOTION_DDOT": 0}, "tle": {"line1": "1 33922U 93036EB  25360.42314296  .00002117  00000+0  55696-3 0  9991", "line2": "2 33922  74.0472 122.1065 0023079 231.2220 195.9664 14.49558695887767"}}, "geometry": {"type": "Point", "coordinates": [37.72789173797836, -73.94405878793704]}}, {"type": "Feature", "properties": {"norad_id": 33924, "name": "COSMOS 2251 DEB", "group": "cosmos-2251-debris", "lat": -32.128540865059584, "lon": 78.02996136386837, "alt_km": 949.5387474699046, "timestamp": "2025-12-26T19:22:39.302431+00:00", "meta": {"OBJECT_NAME": "COSMOS 2251 DEB", "OBJECT_ID": "1993-036ED", "EPOCH": "2025-12-26T02:16:38.971200", "MEAN_MOTION": 13.5024041, "ECCENTRICITY": 0.04037748, "INCLINATION": 73.9129, "RA_OF_ASC_NODE": 248.7342, "ARG_OF_PERICENTER": 281.827, "MEAN_ANOMALY": 73.7826, "EPHEMERIS_TYPE": 0, "CLASSIFICATION_TYPE": "U", "NORAD_CAT_ID": 33924, "ELEMENT_SET_NO": 999, "REV_AT_EPOCH": 82919, "BSTAR": 0.0004135981, "MEAN_MOTION_DOT": 4.14e-06, "MEAN_MOTION_DDOT": 0}, "tle": {"line1": "1 33924U 93036ED  25360.09489550  .00000414  00000+0  41360-3 0  9993", "line2": "2 33924  73.9129 248.7342 0403774 281.8270  73.7826 13.50240410829199"}}, "geometry": {"type": "Point", "coordinates": [78.02996136386837, -32.128540865059584]}}, {"type": "Feature", "properties": {"norad_id": 33928, "name": "COSMOS 2251 DEB", "group": "cosmos-2251-debris", "lat": 8.530251336095304, "lon": 28.55720088792727, "alt_km": 707.9090500728153, "timestamp": "2025-12-26T19:22:39.302441+00:00", "meta": {"OBJECT_NAME": "COSMOS 2251 DEB", "OBJECT_ID": "1993-036EH", "EPOCH": "2025-12-26T11:02:35.371104", "MEAN_MOTION": 14.47430204, "ECCENTRICITY": 0.00620987, "INCLINATION": 73.9252, "RA_OF_ASC_NODE": 26.732, "ARG_OF_PERICENTER": 318.0865, "MEAN_ANOMALY": 41.5547, "EPHEMERIS_TYPE": 0, "CLASSIFICATION_TYPE": "U", "NORAD_CAT_ID": 33928, "ELEMENT_SET_NO": 999, "REV_AT_EPOCH": 88843, "BSTAR": 0.00027750995, "MEAN_MOTION_DOT": 1.014e-05, "MEAN_MOTION_DDOT": 0}, "tle": {"line1": "1 33928U 93036EH  25360.46013161  .00001014  00000+0  27751-3 0  9994", "line2": "2 33928  73.9252  26.7320 0062098 318.0865  41.5547 14.47430204888437"}}, "geometry": {"type": "Point", "coordinates": [28.55720088792727, 8.530251336095304]}}, {"type": "Feature", "properties": {"norad_id": 33932, "name": "COSMOS 2251 DEB", "group": "cosmos-2251-debris", "lat": 63.73048375719008, "lon": -34.57584691173757, "alt_km": 745.3912750857717, "timestamp": "2025-12-26T19:22:39.302452+00:00", "meta": {"OBJECT_NAME": "COSMOS 2251 DEB", "OBJECT_ID": "1993-036EM", "EPOCH": "2025-12-26T05:42:38.676096", "MEAN_MOTION": 14.3879706, "ECCENTRICITY": 0.00360166, "INCLINATION": 74.0343, "RA_OF_ASC_NODE": 291.0216, "ARG_OF_PERICENTER": 4.0198, "MEAN_ANOMALY": 356.1238, "EPHEMERIS_TYPE": 0, "CLASSIFICATION_TYPE": "U", "NORAD_CAT_ID": 33932, "ELEMENT_SET_NO": 999, "REV_AT_EPOCH": 88192, "BSTAR": 0.0004974549, "MEAN_MOTION_DOT": 1.514e-05, "MEAN_MOTION_DDOT": 0}, "tle": {"line1": "1 33932U 93036EM  25360.23794764  .00001514  00000+0  49745-3 0  9991", "line2": "2 33932  74.0343 291.0216 0036016   4.0198 356.1238 14.38797060881923"}}, "geometry": {"type": "Point", "coordinates": [-34.57584691173757, 63.73048375719008]}}, {"type": "Feature", "properties": {"norad_id": 33933, "name": "COSMOS 2251 DEB", "group": "cosmos-2251-debris", "lat": 8.870404354161531, "lon": 37.048680193740516, "alt_km": 736.9956548179634, "timestamp": "2025-12-26T19:22:39.302462+00:00", "meta": {"OBJECT_NAME": "COSMOS 2251 DEB", "OBJECT_ID": "1993-036EN", "EPOCH": "2025-12-26T09:17:09.227040", "MEAN_MOTION": 14.33509628, "ECCENTRICITY": 0.00710652, "INCLINATION": 74.0887, "RA_OF_ASC_NODE": 35.2632, "ARG_OF_PERICENTER": 39.6174, "MEAN_ANOMALY": 321.0139, "EPHEMERIS_TYPE": 0, "CLASSIFICATION_TYPE": "U", "NORAD_CAT_ID": 33933, "ELEMENT_SET_NO": 999, "REV_AT_EPOCH": 87980, "BSTAR": 0.00028229338, "MEAN_MOTION_DOT": 7.77e-06, "MEAN_MOTION_DDOT": 0}, "tle": {"line1": "1 33933U 93036EN  25360.38691235  .00000777  00000+0  28229-3 0  9991", "line2": "2 33933  74.0887  35.2632 0071065  39.6174 321.0139 14.33509628879809"}}, "geometry": {"type": "Point", "coordinates": [37.048680193740516, 8.870404354161531]}}, {"type": "Feature", "properties": {"norad_id": 33934, "name": "COSMOS 2251 DEB", "group": "cosmos-2251-debris", "lat": -14.452058272166253, "lon": 69.53677775534806, "alt_km": 709.0001527706227, "timestamp": "2025-12-26T19:22:39.302473+00:00", "meta": {"OBJECT_NAME": "COSMOS 2251 DEB", "OBJECT_ID": "1993-036EP", "EPOCH": "2025-12-26T14:30:37.322496", "MEAN_MOTION": 14.5921941, "ECCENTRICITY": 0.00150082, "INCLINATION": 74.0378, "RA_OF_ASC_NODE": 74.1534, "ARG_OF_PERICENTER": 197.538, "MEAN_ANOMALY": 162.5269, "EPHEMERIS_TYPE": 0, "CLASSIFICATION_TYPE": "U", "NORAD_CAT_ID": 33934, "ELEMENT_SET_NO": 999, "REV_AT_EPOCH": 88941, "BSTAR": 0.0008797788, "MEAN_MOTION_DOT": 4.13e-05, "MEAN_MOTION_DDOT": 0}, "tle": {"line1": "1 33934U 93036EP  25360.60459864  .00004130  00000+0  87978-3 0  9990", "line2": "2 33934  74.0378  74.1534 0015008 197.5380 162.5269 14.59219410889411"}}, "geometry": {"type": "Point", "coordinates": [69.53677775534806, -14.452058272166253]}}, {"type": "Feature", "properties": {"norad_id": 33936, "name": "COSMOS 2251 DEB", "group": "cosmos-2251-debris", "lat": -27.735282045725995, "lon": 1.9286603045335105, "alt_km": 715.9301474829399, "timestamp": "2025-12-26T19:22:39.302483+00:00", "meta": {"OBJECT_NAME": "COSMOS 2251 DEB", "OBJECT_ID": "1993-036ER", "EPOCH": "2025-12-26T11:17:23.930304", "MEAN_MOTION": 14.60352653, "ECCENTRICITY": 0.00266259, "INCLINATION": 74.0184, "RA_OF_ASC_NODE": 11.2392, "ARG_OF_PERICENTER": 163.2907, "MEAN_ANOMALY": 196.9142, "EPHEMERIS_TYPE": 0, "CLASSIFICATION_TYPE": "U", "NORAD_CAT_ID": 33936, "ELEMENT_SET_NO": 999, "REV_AT_EPOCH": 89090, "BSTAR": 0.00064643696, "MEAN_MOTION_DOT": 3.113e-05, "MEAN_MOTION_DDOT": 0}, "tle": {"line1": "1 33936U 93036ER  25360.47041586  .00003113  00000+0  64644-3 0  9990", "line2": "2 33936  74.0184  11.2392 0026625 163.2907 196.9142 14.60352653890900"}}, "geometry": {"type": "Point", "coordinates": [1.9286603045335105, -27.735282045725995]}}, {"type": "Feature", "properties": {"norad_id": 33938, "name": "COSMOS 2251 DEB", "group": "cosmos-2251-debris", "lat": -39.719691810026326, "lon": 14.661602246979427, "alt_km": 733.0345140026302, "timestamp": "2025-12-26T19:22:39.302493+00:00", "meta": {"OBJECT_NAME": "COSMOS 2251 DEB", "OBJECT_ID": "1993-036ET", "EPOCH": "2025-12-26T15:22:24.560256", "MEAN_MOTION": 14.46836026, "ECCENTRICITY": 0.00168009, "INCLINATION": 74.0436, "RA_OF_ASC_NODE": 181.2223, "ARG_OF_PERICENTER": 262.3331, "MEAN_ANOMALY": 170.7191, "EPHEMERIS_TYPE": 0, "CLASSIFICATION_TYPE": "U", "NORAD_CAT_ID": 33938, "ELEMENT_SET_NO": 999, "REV_AT_EPOCH": 88601, "BSTAR": 0.00047995766, "MEAN_MOTION_DOT": 1.716e-05, "MEAN_MOTION_DDOT": 0}, "tle": {"line1": "1 33938U 93036ET  25360.64056204  .00001716  00000+0  47996-3 0  9992", "line2": "2 33938  74.0436 181.2223 0016800 262.3331 170.7191 14.46836026886015"}}, "geometry": {"type": "Point", "coordinates": [14.661602246979427, -39.719691810026326]}}]}